56047,ONEWEB-0538,2023,109.37,-1.0,+,87.91,Active,0,LEO,India,UK,Unknown,Unknown,Unknown,1 56047U 23043B   24082.90492388  .00000003  00000+0 -26715-4 0  9991,2 56047  87.9123  31.2391 0001565  85.5163 274.6146 13.16593944 52471,13.16593944,0.0001565,LEO
56048,ONEWEB-0546,2023,109.37,-1.0,+,87.91,Active,0,LEO,India,UK,Unknown,Unknown,Unknown,1 56048U 23043C   24082.89226296 -.00000034  00000+0 -12293-3 0  9993,2 56048  87.9123  31.2045 0002439 101.0162 259.1243 13.16595028 51551,13.16595028,0.0002439,LEO
56049,ONEWEB-0547,2023,108.94,-1.0,+,87.93,Active,0,LEO,India,UK,Unknown,Unknown,Unknown,1 56049U 23043D   24083.84692306  .00000057  00000+0  10569-3 0  9996,2 56049  87.9267  46.2547 0001498  92.2636 267.8670 13.21827762 51420,13.21827762,0.0001498,LEO
56050,ONEWEB-0548,2023,109.37,-1.0,+,87.91,Active,0,LEO,India,UK,Unknown,Unknown,Unknown,1 56050U 23043E   24083.37357922  .00000167  00000+0  40223-3 0  9990,2 56050  87.9123  31.1534 0002373  68.9411 291.1973 13.16594285 52529,13.16594285,0.0002373,LEO
56051,ONEWEB-0549,2023,108.94,-1.0,+,87.93,Active,0,LEO,India,UK,Unknown,Unknown,Unknown,1 56051U 23043F   24083.46055244  .00000099  00000+0  20870-3 0  9993,2 56051  87.9266  46.3314 0001796  79.8111 280.3225 13.21827770 51374,13.2182777,0.0001796,LEO
56052,ONEWEB-0550,2023,108.94,-1.0,+,87.93,Active,0,LEO,India,UK,Unknown,Unknown,Unknown,1 56052U 23043G   24083.90211638  .00000078  00000+0  15710-3 0  9998,2 56052  87.9265  46.2541 0001991  76.1678 283.9677 13.21828391 51437,13.21828391,0.0001991,LEO
56053,ONEWEB-0551,2023,109.46,-1.0,+,87.9,Active,0,LEO,India,UK,Unknown,Unknown,Unknown,1 56053U 23043H   24082.90799386  .00000012  00000+0 -33000-5 0  9992,2 56053  87.8979  61.6755 0001695  80.7419 279.3903 13.15549282 49982,13.15549282,0.0001695,LEO
56054,ONEWEB-0552,2023,108.94,-1.0,+,87.93,Active,0,LEO,India,UK,Unknown,Unknown,Unknown,1 56054U 23043J   24083.89580282  .00000039  00000+0  63249-4 0  9990,2 56054  87.9265  46.2659 0001871  71.1993 288.9344 13.21828979 51439,13.21828979,0.0001871,LEO
